STARLINK-2637           
1 48356U 21038D   26068.04850982  .00008368  00000+0  30201-3 0  9991
2 48356  53.1538   1.1174 0001281  68.0058 292.1078 15.29352936266981
TIANMU-1 07             
1 57399U 23101A   26065.57454230  .00008352  00000+0  29795-3 0  9991
2 57399  97.2728 118.5929 0004609 142.4105 217.7458 15.29118809145964
